     2.100          NAVIGATION                              RINEX VERSION / TYPE
fic2rin                                 10/19/2017 00:19:22 PGM / RUN BY / DATE
                                                            END OF HEADER
23 17 10 18 22  0  0.0 -.218193046749D-03 -.227373675443D-12  .000000000000D+00
     .129000000000D+03  .610000000000D+02  .480341436720D-08  .999437616874D+00
     .341236591339D-05  .118488740409D-01  .123996287584D-04  .515367471886D+04
     .338400000000D+06 -.484287738800D-07 -.294508686139D+01  .124797224998D-06
     .944522421001D+00  .133625000000D+03 -.241743023094D+01 -.830820321287D-08
     .115719105880D-09  .100000000000D+01  .197100000000D+04  .000000000000D+00
     .240000000000D+01  .000000000000D+00 -.204890966415D-07  .129000000000D+03
     .331206000000D+06  .400000000000D+01
24 17 10 18 22  0  0.0 -.410596840084D-04 -.454747350886D-12  .000000000000D+00
     .136000000000D+03  .468125000000D+02  .545165565477D-08  .478039064703D+00
     .251829624176D-05  .609474291559D-02  .199116766453D-05  .515366922188D+04
     .338400000000D+06  .465661287308D-07 -.192315484559D+01  .521540641785D-07
     .943629681095D+00  .327687500000D+03  .468161700768D+00 -.885036865338D-08
     .589310261424D-10  .100000000000D+01  .197100000000D+04  .000000000000D+00
     .340000000000D+01  .000000000000D+00  .279396772385D-08  .136000000000D+03
     .331206000000D+06  .400000000000D+01
25 17 10 18 22  0  0.0 -.474912580103D-03 -.636646291241D-11  .000000000000D+00
     .139000000000D+03 -.895937500000D+02  .416195907659D-08 -.149843782386D+01
    -.468827784061D-05  .661228608806D-02  .836513936520D-05  .515373864746D+04
     .338400000000D+06  .160187482834D-06 -.836124648839D+00 -.931322574615D-08
     .976093584387D+00  .227468750000D+03  .817656838301D+00 -.789354308347D-08
    -.541451125041D-09  .100000000000D+01  .197100000000D+04  .000000000000D+00
     .240000000000D+01  .000000000000D+00  .558793544769D-08  .139000000000D+03
     .331206000000D+06  .400000000000D+01
26 17 10 18 22  0  0.0 -.392395071685D-03  .122781784739D-10  .000000000000D+00
     .810000000000D+02 -.995625000000D+02  .459411993496D-08 -.205279705558D+01
    -.511109828949D-05  .201402837411D-02  .794976949692D-05  .515378426170D+04
     .338400000000D+06  .111758708954D-07 -.854108132552D+00  .279396772385D-07
     .957756788403D+00  .225312500000D+03 -.423726029318D-01 -.820141305034D-08
    -.524664711534D-09  .100000000000D+01  .197100000000D+04  .000000000000D+00
     .240000000000D+01  .000000000000D+00  .745058059692D-08  .810000000000D+02
     .331206000000D+06  .400000000000D+01
27 17 10 18 22  0  0.0  .338584184647D-03  .420641299570D-11  .000000000000D+00
     .460000000000D+02  .314375000000D+02  .383087385699D-08  .241373570594D+01
     .162608921528D-05  .497083086520D-02  .127665698528D-04  .515367809296D+04
     .338400000000D+06 -.428408384323D-07  .202898356537D+00 -.204890966415D-07
     .976325885538D+00  .139625000000D+03  .382305272572D+00 -.765496171702D-08
     .385730352932D-09  .100000000000D+01  .197100000000D+04  .000000000000D+00
     .240000000000D+01  .000000000000D+00  .186264514923D-08  .460000000000D+02
     .331206000000D+06  .400000000000D+01
28 17 10 18 22  0  0.0  .655152369291D-03  .318323145621D-11  .000000000000D+00
     .740000000000D+02 -.108312500000D+03  .371015454283D-08 -.299836589164D+01
    -.546500086784D-05  .199179921765D-01  .857189297676D-05  .515366202927D+04
     .338400000000D+06  .212341547012D-06 -.755769345604D+00  .186264514923D-08
     .987635658395D+00  .225312500000D+03 -.156049694318D+01 -.740352267215D-08
    -.480377152494D-09  .100000000000D+01  .197100000000D+04  .000000000000D+00
     .240000000000D+01  .000000000000D+00 -.111758708954D-07  .740000000000D+02
     .331206000000D+06  .400000000000D+01
29 17 10 18 22  0  0.0  .549458432943D-03 -.466116034659D-11  .000000000000D+00
     .430000000000D+02  .414375000000D+02  .373015537594D-08 -.260725544828D+01
     .224262475967D-05  .423768069595D-03  .117588788271D-04  .515355441666D+04
     .338400000000D+06 -.968575477600D-07  .265960396901D+00  .502914190292D-07
     .982643903954D+00  .164718750000D+03  .906962180718D+00 -.758103006605D-08
     .404659712844D-09  .100000000000D+01  .197100000000D+04  .000000000000D+00
     .240000000000D+01  .000000000000D+00 -.102445483208D-07  .430000000000D+02
     .331206000000D+06  .400000000000D+01
30 17 10 18 22  0  0.0  .133859459311D-03 -.238742359215D-11  .000000000000D+00
     .750000000000D+02  .376562500000D+02  .528950604344D-08 -.467692074806D+00
     .182352960110D-05  .303005659953D-02  .223144888878D-05  .515361231804D+04
     .338400000000D+06  .391155481339D-07 -.183034271006D+01  .186264514923D-07
     .946213906864D+00  .328062500000D+03 -.304920451707D+01 -.871107713704D-08
     .714315468392D-10  .100000000000D+01  .197100000000D+04  .000000000000D+00
     .240000000000D+01  .000000000000D+00  .372529029846D-08  .750000000000D+02
     .331206000000D+06  .400000000000D+01
31 17 10 18 22  0  0.0  .167975667864D-03 -.250111042988D-11  .000000000000D+00
     .820000000000D+02  .312187500000D+02  .493484841339D-08 -.696727001819D+00
     .160932540894D-05  .859786069486D-02  .257231295109D-05  .515379597855D+04
     .338400000000D+06  .484287738800D-07 -.185559686151D+01 -.163912773132D-06
     .965247716019D+00  .332531250000D+03 -.230320302428D+00 -.857178562071D-08
     .133934150324D-09  .100000000000D+01  .197100000000D+04  .000000000000D+00
     .240000000000D+01  .000000000000D+00 -.135041773319D-07  .820000000000D+02
     .331206000000D+06  .400000000000D+01
32 17 10 18 22  0  0.0 -.514619983733D-03 -.432009983342D-11  .000000000000D+00
     .610000000000D+02  .764687500000D+02  .435732435719D-08  .300443024738D+01
     .394135713577D-05  .146255618893D-02  .120494514704D-04  .515360571289D+04
     .338400000000D+06 -.111758708954D-07 -.294164359695D+01  .167638063431D-07
     .958126631649D+00  .145375000000D+03 -.257553484196D+01 -.789711466081D-08
     .241438628317D-09  .100000000000D+01  .197100000000D+04  .000000000000D+00
     .240000000000D+01  .000000000000D+00  .465661287308D-09  .610000000000D+02
     .331206000000D+06  .400000000000D+01
 2 17 10 18 21 59 44.0  .303066335618D-03 -.943600753089D-11  .000000000000D+00
     .340000000000D+02  .385000000000D+02  .529057751665D-08  .590337990267D+00
     .193715095520D-05  .171571404207D-01  .423938035965D-05  .515359860039D+04
     .338384000000D+06 -.234693288803D-06  .120326256670D+01  .558793544769D-07
     .947476686047D+00  .291562500000D+03 -.194708461584D+01 -.888715590000D-08
     .201079804352D-09  .100000000000D+01  .197100000000D+04  .000000000000D+00
     .240000000000D+01  .000000000000D+00 -.204890966415D-07  .340000000000D+02
     .337536000000D+06  .400000000000D+01
14 17 10 18 21 59 44.0 -.865343026817D-04 -.909494701773D-12  .000000000000D+00
     .370000000000D+02  .813125000000D+02  .432946605392D-08  .205886425230D+01
     .409595668316D-05  .929474481381D-02  .117886811495D-04  .515371150398D+04
     .338384000000D+06  .242143869400D-07 -.285762910843D+01 -.204890966415D-06
     .962109538764D+00  .150937500000D+03 -.194750041812D+01 -.783746931920D-08
     .331799535068D-09  .100000000000D+01  .197100000000D+04  .000000000000D+00
     .240000000000D+01  .000000000000D+00 -.977888703346D-08  .370000000000D+02
     .337686000000D+06  .400000000000D+01
 2 17 10 18 23 59 44.0  .302998349071D-03 -.943600753089D-11  .000000000000D+00
     .350000000000D+02  .426875000000D+02  .518414451186D-08  .164060432422D+01
     .197626650333D-05  .171570876846D-01  .429525971413D-05  .515359756088D+04
     .345584000000D+06 -.329688191414D-06  .120319803300D+01 -.339001417160D-06
     .947479587014D+00  .288906250000D+03 -.194711806400D+01 -.860142971264D-08
     .368943939425D-09  .100000000000D+01  .197100000000D+04  .000000000000D+00
     .240000000000D+01  .000000000000D+00 -.204890966415D-07  .350000000000D+02
     .338406000000D+06  .400000000000D+01
14 17 10 18 23 59 44.0 -.865408219397D-04 -.909494701773D-12  .000000000000D+00
     .400000000000D+02  .880312500000D+02  .426374903083D-08  .310892307426D+01
     .449083745480D-05  .929393863771D-02  .113900750875D-04  .515371365166D+04
     .345584000000D+06  .912696123123D-07 -.285768488365D+01 -.894069671631D-07
     .962112119352D+00  .158156250000D+03 -.194740433220D+01 -.775603735580D-08
     .311798701953D-09  .100000000000D+01  .197100000000D+04  .000000000000D+00
     .240000000000D+01  .000000000000D+00 -.977888703346D-08  .400000000000D+02
     .338406000000D+06  .400000000000D+01
 1 17 10 19  0  0  0.0 -.505801290274D-05 -.147792889038D-11  .000000000000D+00
     .138000000000D+03  .318750000000D+02  .477841332581D-08  .122270634402D+01
     .160373747349D-05  .708363100421D-02  .399723649025D-05  .515367067909D+04
     .345600000000D+06 -.707805156708D-07  .125967785048D+01  .372529029846D-07
     .968461613914D+00  .306468750000D+03  .632480182138D+00 -.840356432790D-08
     .196793911542D-09  .100000000000D+01  .197100000000D+04  .000000000000D+00
     .240000000000D+01  .000000000000D+00  .558793544769D-08  .138000000000D+03
     .338406000000D+06  .400000000000D+01
 3 17 10 19  0  0  0.0 -.541778281331D-04  .500222085975D-11  .000000000000D+00
     .810000000000D+02 -.721250000000D+02  .468233789531D-08  .207202807194D+00
    -.374019145966D-05  .107180501800D-02  .876002013683D-05  .515363564301D+04
     .345600000000D+06  .726431608200D-07  .230276968015D+01  .335276126862D-07
     .960230471693D+00  .213937500000D+03  .528231675747D+00 -.813926760459D-08
    -.495020619596D-09  .100000000000D+01  .197100000000D+04  .000000000000D+00
     .240000000000D+01  .000000000000D+00  .232830643654D-08  .810000000000D+02
     .338406000000D+06  .400000000000D+01
